ONEWEB-0320             
1 49190U 21083E   25073.94546763  .00000106  00000+0  23520-3 0  9999
2 49190  87.9063  66.7753 0001884  87.0840 273.0507 13.18686014169457
ONEWEB-0321             
1 49191U 21083F   25074.19054395  .00000042  00000+0  70539-4 0  9995
2 49191  87.9336   5.7851 0002039  75.8553 284.2807 13.20773184177524
ONEWEB-0322             
1 49192U 21083G   25073.95686690  .00000668  00000+0  17939-2 0  9995
2 49192  87.8923  51.5282 0002247  75.4594 284.6784 13.13465732170637
ONEWEB-0324             
1 49193U 21083H   25073.93123255  .00000104  00000+0  23156-3 0  9991
2 49193  87.9063  66.7578 0001667  85.9708 274.1615 13.18685859169474
ONEWEB-0325             
1 49194U 21083J   25073.93597199  .00000043  00000+0  75816-4 0  9997
2 49194  87.9061  66.7739 0001984  85.4457 274.6901 13.18686737169480
ONEWEB-0326             
1 49195U 21083K   25073.95030900  .00000071  00000+0  14820-3 0  9990
2 49195  87.9061  66.7635 0001554 101.7365 258.3942 13.18646910169471
ONEWEB-0327             
1 49196U 21083L   25073.95003837  .00000020  00000+0  18843-4 0  9994
2 49196  87.9061  66.7911 0001887  98.1239 262.0108 13.18563721169493
ONEWEB-0328             
1 49197U 21083M   25073.94669333 -.00000009  00000+0 -60787-4 0  9996
2 49197  87.8914  51.4851 0001796  83.0030 277.1303 13.13469512170613
